IRIDIUM 155             
1 43573U 18061E   25332.52660262  .00000107  00000+0  31317-4 0  9998
2 43573  86.3961 140.5742 0001856  95.9992 264.1416 14.34217807384593
IRIDIUM 154             
1 43574U 18061F   25332.50757483 -.00000027  00000+0 -16613-4 0  9994
2 43574  86.3972 140.7058 0001976  91.2007 268.9416 14.34217260384648
IRIDIUM 163             
1 43575U 18061G   25332.55831849  .00000107  00000+0  31051-4 0  9999
2 43575  86.3963 140.6063 0001936  88.0168 272.1249 14.34216277384628
IRIDIUM 156             
1 43576U 18061H   25332.53294411  .00000035  00000+0  54011-5 0  9998
2 43576  86.3964 140.6237 0001943  98.6137 261.5279 14.34217811384613
IRIDIUM 164             
1 43577U 18061J   25332.51393176  .00000111  00000+0  32723-4 0  9995
2 43577  86.3964 140.6690 0002174  93.2557 266.8887 14.34216999384654
IRIDIUM 159             
1 43578U 18061K   25332.55197243  .00000002  00000+0 -62876-5 0  9990
2 43578  86.3968 140.5942 0002022  87.8695 272.2732 14.34217674384620
IRIDIUM 180             
1 43922U 19002A   25332.34216374  .00000356  00000+0  11994-3 0  9997
2 43922  86.3964  77.5597 0002015  91.2495 268.8932 14.34221966360203
IRIDIUM 176             
1 43923U 19002B   25332.79018962  .00000700  00000+0  10704-3 0  9991
2 43923  86.6089  77.3450 0002006  99.9181 260.2262 14.72250297369761
IRIDIUM 168             
1 43924U 19002C   25332.82420184  .00000169  00000+0  53134-4 0  9993
2 43924  86.3966  77.4299 0001969  94.7737 265.3684 14.34218995360258
IRIDIUM 173             
1 43925U 19002D   25332.53244319  .00000353  00000+0  11889-3 0  9991
2 43925  86.3965  77.4490 0001932  95.8739 264.2677 14.34221646360195
IRIDIUM 169             
1 43926U 19002E   25332.79250597  .00000296  00000+0  90421-4 0  9991
2 43926  86.4207 108.9902 0001021 116.9170 243.2133 14.38602586361417
IRIDIUM 172             
1 43927U 19002F   25332.59586810  .00000229  00000+0  74567-4 0  9999
2 43927  86.3962  77.4295 0002051  90.0542 270.0889 14.34220973360214
IRIDIUM 175             
1 43928U 19002G   25332.58154263  .00001006  00000+0  15561-3 0  9994
2 43928  86.1517  20.6384 0002958 104.0923 256.0623 14.72253820369727
IRIDIUM 171             
1 43929U 19002H   25332.78614513  .00000313  00000+0  10465-3 0  9994
2 43929  86.3975  77.6346 0002125 103.6785 256.4647 14.34216993360230
IRIDIUM 170             
1 43930U 19002J   25332.79637256  .00001208  00000+0  18763-3 0  9999
2 43930  86.6089  77.3461 0002299  89.8412 270.3069 14.72251558369779
IRIDIUM 167             
1 43931U 19002K   25332.77980302  .00000325  00000+0  10902-3 0  9997
2 43931  86.3969  77.3744 0002082 110.8098 249.3321 14.34219390360238
IRIDIUM 181             
1 56726U 23068S   25332.53654172  .00000156  00000+0  40455-4 0  9996
2 56726  86.4502 140.6575 0002661  93.1743 266.9762 14.43310255133499
IRIDIUM 177             
1 56727U 23068T   25332.34311950  .00001834  00000+0  23778-3 0  9992
2 56727  86.1973  64.1663 0002287  87.8098 272.3385 14.80237692136651
IRIDIUM 174             
1 56728U 23068U   25332.78401646  .00001308  00000+0  20356-3 0  9998
2 56728  86.6096  77.4786 0002362  89.1949 270.9538 14.72247891136534
IRIDIUM 178             
1 56729U 23068V   25331.79129098  .00000689  00000+0  87200-4 0  9990
2 56729  86.6528 109.5440 0002005  98.2826 261.8623 14.80228491136570
IRIDIUM 179             
1 56730U 23068W   25332.39432426  .00001553  00000+0  20094-3 0  9999
2 56730  86.6764 117.6717 0002423 101.9708 258.1786 14.80240053136663
